0 CZ-4 DEB
1 26127U 99057P   13281.48594991  .00001360  00000-0  38830-3 0  4093
2 26127 097.9920 120.5162 0128977 014.6915 043.0100 14.41901132711275
0 CZ-4 DEB
1 26127U 99057P   13283.78937833  .00001495  00000-0  42564-3 0  4104
2 26127 097.9916 122.6745 0128748 007.6639 119.7891 14.41914334711604
0 CZ-4 DEB
1 26127U 99057P   13285.80202134  .00001487  00000-0  42341-3 0  4113
2 26127 097.9912 124.5605 0128615 001.5356 127.1978 14.41918178711898
0 CZ-4 DEB
1 26127U 99057P   13287.94889475  .00002490  00000-0  70096-3 0  4123
2 26127 097.9908 126.5721 0128441 354.9865 111.4370 14.41927871712209
0 CZ-4 DEB
1 26127U 99057P   13290.22868506  .00001995  00000-0  56404-3 0  4137
2 26127 097.9906 128.7082 0128282 348.0208 065.7345 14.41937146712534
0 CZ-4 DEB
1 26127U 99057P   13292.51426057  .00002294  00000-0  64666-3 0  4145
2 26127 097.9901 130.8485 0128237 341.0524 050.1281 14.41943266712867
0 CZ-4 DEB
1 26127U 99057P   13294.81036031  .00002341  00000-0  65979-3 0  4151
2 26127 097.9906 133.0006 0127979 334.0080 089.2562 14.41954195713192
